0 OPS 0203 (DMSP 5A F2)
1 04512U 70070A   13282.34414826  .00000150  00000-0  68948-4 0  3982
2 04512 098.8293 021.1014 0064984 007.6783 032.7338 14.33858474247549
0 OPS 0203 (DMSP 5A F2)
1 04512U 70070A   13283.75447639  .00000133  00000-0  62948-4 0  3992
2 04512 098.8295 022.5406 0064893 003.5256 112.7031 14.33859203247742
0 OPS 0203 (DMSP 5A F2)
1 04512U 70070A   13286.12743294  .00000155  00000-0  70802-4 0  4018
2 04512 098.8299 024.9624 0064768 356.5126 121.6969 14.33859711248083
0 OPS 0203 (DMSP 5A F2)
1 04512U 70070A   13287.36825525  .00000182  00000-0  80205-4 0  4022
2 04512 098.8300 026.2288 0064699 352.8411 046.7196 14.33860241248265
0 OPS 0203 (DMSP 5A F2)
1 04512U 70070A   13288.77786282  .00000238  00000-0  99889-4 0  4035
2 04512 098.8301 027.6677 0064645 348.6744 122.9975 14.33861043248461
0 OPS 0203 (DMSP 5A F2)
1 04512U 70070A   13289.82438906  .00000221  00000-0  94027-4 0  4041
2 04512 098.8300 028.7359 0064581 345.5688 125.0940 14.33861913248610
0 OPS 0203 (DMSP 5A F2)
1 04512U 70070A   13291.15536124  .00000234  00000-0  98528-4 0  4056
2 04512 098.8298 030.0945 0064524 341.6257 155.4795 14.33862611248801
0 OPS 0203 (DMSP 5A F2)
1 04512U 70070A   13292.18684277  .00000246  00000-0  10281-3 0  4066
2 04512 098.8297 031.1473 0064475 338.5520 079.9350 14.33862969248950
0 OPS 0203 (DMSP 5A F2)
1 04512U 70070A   13293.51311464  .00000266  00000-0  10976-3 0  4073
2 04512 098.8296 032.5010 0064415 334.6065 086.0790 14.33864003249146
0 OPS 0203 (DMSP 5A F2)
1 04512U 70070A   13294.84860843  .00000272  00000-0  11183-3 0  4089
2 04512 098.8295 033.8640 0064355 330.6365 139.8269 14.33864837249334
0 OPS 0203 (DMSP 5A F2)
1 04512U 70070A   13296.17817316  .00000255  00000-0  10603-3 0  4092
2 04512 098.8296 035.2210 0064302 326.6699 162.9871 14.33865875249521
